{"type": "FeatureCollection", "features": [ {"type": "Feature", "properties": {"norad_id": 66697, "name": "IRIDE FM3", "group": "last-30-days", "lat": -9.153245728600638, "lon": 70.21161866356904, "alt_km": 516.3145974897398, "timestamp": "2025-12-23T09:49:05.796435+00:00", "meta": {"OBJECT_NAME": "IRIDE FM3", "OBJECT_ID": "2025-276AH", "EPOCH": "2025-12-22T22:47:09.024000", "MEAN_MOTION": 15.18165281, "ECCENTRICITY": 0.00011639, "INCLINATION": 97.4391, "RA_OF_ASC_NODE": 68.5533, "ARG_OF_PERICENTER": 154.94, "MEAN_ANOMALY": 205.189, "EPHEMERIS_TYPE": 0, "CLASSIFICATION_TYPE": "U", "NORAD_CAT_ID": 66697, "ELEMENT_SET_NO": 999, "REV_AT_EPOCH": 367, "BSTAR": 0.00058468093, "MEAN_MOTION_DOT": 0.00011888, "MEAN_MOTION_DDOT": 0}, "tle": {"line1": "1 66697U 25276AH  25356.94941000  .00011888  00000+0  58468-3 0  9993", "line2": "2 66697  97.4391  68.5533 0001163 154.9400 205.1890 15.18165281  3672"}}, "geometry": {"type": "Point", "coordinates": [70.21161866356904, -9.153245728600638]}}, {"type": "Feature", "properties": {"norad_id": 66698, "name": "IRIDE FM4", "group": "last-30-days", "lat": -80.6629552941192, "lon": 121.60159411269923, "alt_km": 525.2475977244803, "timestamp": "2025-12-23T09:49:05.796445+00:00", "meta": {"OBJECT_NAME": "IRIDE FM4", "OBJECT_ID": "2025-276AJ", "EPOCH": "2025-12-22T15:11:00.371616", "MEAN_MOTION": 15.16542107, "ECCENTRICITY": 0.00031447, "INCLINATION": 97.4393, "RA_OF_ASC_NODE": 68.213, "ARG_OF_PERICENTER": 198.1981, "MEAN_ANOMALY": 161.914, "EPHEMERIS_TYPE": 0, "CLASSIFICATION_TYPE": "U", "NORAD_CAT_ID": 66698, "ELEMENT_SET_NO": 999, "REV_AT_EPOCH": 362, "BSTAR": -0.020508134, "MEAN_MOTION_DOT": -0.00379692, "MEAN_MOTION_DDOT": 0}, "tle": {"line1": "1 66698U 25276AJ  25356.63264319 -.00379692  00000+0 -20508-1 0  9995", "line2": "2 66698  97.4393  68.2130 0003144 198.1981 161.9140 15.16542107  3626"}}, "geometry": {"type": "Point", "coordinates": [121.60159411269923, -80.6629552941192]}}, {"type": "Feature", "properties": {"norad_id": 66699, "name": "IRIDE FM5", "group": "last-30-days", "lat": -76.69524567922055, "lon": 102.52789311717981, "alt_km": 519.2982483113392, "timestamp": "2025-12-23T09:49:05.796458+00:00", "meta": {"OBJECT_NAME": "IRIDE FM5", "OBJECT_ID": "2025-276AK", "EPOCH": "2025-12-22T21:30:16.479648", "MEAN_MOTION": 15.17411387, "ECCENTRICITY": 0.00025489, "INCLINATION": 97.4404, "RA_OF_ASC_NODE": 68.4761, "ARG_OF_PERICENTER": 262.0592, "MEAN_ANOMALY": 98.0352, "EPHEMERIS_TYPE": 0, "CLASSIFICATION_TYPE": "U", "NORAD_CAT_ID": 66699, "ELEMENT_SET_NO": 999, "REV_AT_EPOCH": 366, "BSTAR": 0.0011659283, "MEAN_MOTION_DOT": 0.00023301, "MEAN_MOTION_DDOT": 0}, "tle": {"line1": "1 66699U 25276AK  25356.89602407  .00023301  00000+0  11659-2 0  9997", "line2": "2 66699  97.4404  68.4761 0002548 262.0592  98.0352 15.17411387  3663"}}, "geometry": {"type": "Point", "coordinates": [102.52789311717981, -76.69524567922055]}}, {"type": "Feature", "properties": {"norad_id": 66700, "name": "IRIDE FM6", "group": "last-30-days", "lat": -5.64296246228269, "lon": 69.75679562428027, "alt_km": 516.0046353492598, "timestamp": "2025-12-23T09:49:05.796470+00:00", "meta": {"OBJECT_NAME": "IRIDE FM6", "OBJECT_ID": "2025-276AL", "EPOCH": "2025-12-22T21:11:19.983552", "MEAN_MOTION": 15.18219477, "ECCENTRICITY": 0.00015384, "INCLINATION": 97.4422, "RA_OF_ASC_NODE": 68.4991, "ARG_OF_PERICENTER": 162.8639, "MEAN_ANOMALY": 197.2647, "EPHEMERIS_TYPE": 0, "CLASSIFICATION_TYPE": "U", "NORAD_CAT_ID": 66700, "ELEMENT_SET_NO": 999, "REV_AT_EPOCH": 366, "BSTAR": 0.00064145129, "MEAN_MOTION_DOT": 0.00013071, "MEAN_MOTION_DDOT": 0}, "tle": {"line1": "1 66700U 25276AL  25356.88287018  .00013071  00000+0  64145-3 0  9998", "line2": "2 66700  97.4422  68.4991 0001538 162.8639 197.2647 15.18219477  3664"}}, "geometry": {"type": "Point", "coordinates": [69.75679562428027, -5.64296246228269]}}, {"type": "Feature", "properties": {"norad_id": 66701, "name": "IRIDE FM7", "group": "last-30-days", "lat": -76.76713148524149, "lon": 102.75716871833009, "alt_km": 519.1545669260713, "timestamp": "2025-12-23T09:49:05.796480+00:00", "meta": {"OBJECT_NAME": "IRIDE FM7", "OBJECT_ID": "2025-276AM", "EPOCH": "2025-12-22T21:30:16.860672", "MEAN_MOTION": 15.17382045, "ECCENTRICITY": 0.00030776, "INCLINATION": 97.4421, "RA_OF_ASC_NODE": 68.4822, "ARG_OF_PERICENTER": 256.9365, "MEAN_ANOMALY": 103.1525, "EPHEMERIS_TYPE": 0, "CLASSIFICATION_TYPE": "U", "NORAD_CAT_ID": 66701, "ELEMENT_SET_NO": 999, "REV_AT_EPOCH": 366, "BSTAR": 0.00064176994, "MEAN_MOTION_DOT": 0.00012767, "MEAN_MOTION_DDOT": 0}, "tle": {"line1": "1 66701U 25276AM  25356.89602848  .00012767  00000+0  64177-3 0  9998", "line2": "2 66701  97.4421  68.4822 0003077 256.9365 103.1525 15.17382045  3660"}}, "geometry": {"type": "Point", "coordinates": [102.75716871833009, -76.76713148524149]}}, {"type": "Feature", "properties": {"norad_id": 66702, "name": "IRIDE FM8", "group": "last-30-days", "lat": -75.96239762008243, "lon": 100.48925319759817, "alt_km": 519.1641526287049, "timestamp": "2025-12-23T09:49:05.796490+00:00", "meta": {"OBJECT_NAME": "IRIDE FM8", "OBJECT_ID": "2025-276AN", "EPOCH": "2025-12-22T21:30:01.638720", "MEAN_MOTION": 15.17387561, "ECCENTRICITY": 0.00028995, "INCLINATION": 97.4399, "RA_OF_ASC_NODE": 68.4748, "ARG_OF_PERICENTER": 264.2723, "MEAN_ANOMALY": 95.818, "EPHEMERIS_TYPE": 0, "CLASSIFICATION_TYPE": "U", "NORAD_CAT_ID": 66702, "ELEMENT_SET_NO": 999, "REV_AT_EPOCH": 366, "BSTAR": 0.00055705792, "MEAN_MOTION_DOT": 0.00011072, "MEAN_MOTION_DDOT": 0}, "tle": {"line1": "1 66702U 25276AN  25356.89585230  .00011072  00000+0  55706-3 0  9990", "line2": "2 66702  97.4399  68.4748 0002899 264.2723  95.8180 15.17387561  3665"}}, "geometry": {"type": "Point", "coordinates": [100.48925319759817, -75.96239762008243]}}, {"type": "Feature", "properties": {"norad_id": 66703, "name": "PELICAN-6", "group": "last-30-days", "lat": -69.7972365282355, "lon": 89.78661789682957, "alt_km": 520.7160793932844, "timestamp": "2025-12-23T09:49:05.796512+00:00", "meta": {"OBJECT_NAME": "PELICAN-6", "OBJECT_ID": "2025-276AP", "EPOCH": "2025-12-22T21:28:10.777152", "MEAN_MOTION": 15.17330982, "ECCENTRICITY": 0.00010112, "INCLINATION": 97.4407, "RA_OF_ASC_NODE": 68.4784, "ARG_OF_PERICENTER": 243.7151, "MEAN_ANOMALY": 116.3979, "EPHEMERIS_TYPE": 0, "CLASSIFICATION_TYPE": "U", "NORAD_CAT_ID": 66703, "ELEMENT_SET_NO": 999, "REV_AT_EPOCH": 366, "BSTAR": 0.00030189053, "MEAN_MOTION_DOT": 5.956e-05, "MEAN_MOTION_DDOT": 0}, "tle": {"line1": "1 66703U 25276AP  25356.89456918  .00005956  00000+0  30189-3 0  9993", "line2": "2 66703  97.4407  68.4784 0001011 243.7151 116.3979 15.17330982  3668"}}, "geometry": {"type": "Point", "coordinates": [89.78661789682957, -69.7972365282355]}}, {"type": "Feature", "properties": {"norad_id": 66704, "name": "FLOCK 4H-1", "group": "last-30-days", "lat": -13.747163577813035, "lon": 70.8306372214008, "alt_km": 517.551817947091, "timestamp": "2025-12-23T09:49:05.796526+00:00", "meta": {"OBJECT_NAME": "FLOCK 4H-1", "OBJECT_ID": "2025-276AQ", "EPOCH": "2025-12-22T21:13:25.337856", "MEAN_MOTION": 15.18085239, "ECCENTRICITY": 0.00018519, "INCLINATION": 97.4385, "RA_OF_ASC_NODE": 68.4831, "ARG_OF_PERICENTER": 170.3616, "MEAN_ANOMALY": 189.7654, "EPHEMERIS_TYPE": 0, "CLASSIFICATION_TYPE": "U", "NORAD_CAT_ID": 66704, "ELEMENT_SET_NO": 999, "REV_AT_EPOCH": 366, "BSTAR": 0.00056708144, "MEAN_MOTION_DOT": 0.00011501, "MEAN_MOTION_DDOT": 0}, "tle": {"line1": "1 66704U 25276AQ  25356.88432104  .00011501  00000+0  56708-3 0  9992", "line2": "2 66704  97.4385  68.4831 0001851 170.3616 189.7654 15.18085239  3667"}}, "geometry": {"type": "Point", "coordinates": [70.8306372214008, -13.747163577813035]}}, {"type": "Feature", "properties": {"norad_id": 66705, "name": "FLOCK 4H-2", "group": "last-30-days", "lat": -11.14350109569976, "lon": 70.47430950386354, "alt_km": 516.7134115830586, "timestamp": "2025-12-23T09:49:05.796537+00:00", "meta": {"OBJECT_NAME": "FLOCK 4H-2", "OBJECT_ID": "2025-276AR", "EPOCH": "2025-12-22T21:12:45.130752", "MEAN_MOTION": 15.18132938, "ECCENTRICITY": 0.00012461, "INCLINATION": 97.4379, "RA_OF_ASC_NODE": 68.4834, "ARG_OF_PERICENTER": 160.6726, "MEAN_ANOMALY": 199.4555, "EPHEMERIS_TYPE": 0, "CLASSIFICATION_TYPE": "U", "NORAD_CAT_ID": 66705, "ELEMENT_SET_NO": 999, "REV_AT_EPOCH": 366, "BSTAR": 0.00047542742, "MEAN_MOTION_DOT": 9.642e-05, "MEAN_MOTION_DDOT": 0}, "tle": {"line1": "1 66705U 25276AR  25356.88385568  .00009642  00000+0  47543-3 0  9994", "line2": "2 66705  97.4379  68.4834 0001246 160.6726 199.4555 15.18132938  3663"}}, "geometry": {"type": "Point", "coordinates": [70.47430950386354, -11.14350109569976]}}, {"type": "Feature", "properties": {"norad_id": 66706, "name": "FLOCK 4H-3", "group": "last-30-days", "lat": -65.85100204759533, "lon": 85.95622605371783, "alt_km": 519.4109821329093, "timestamp": "2025-12-23T09:49:05.796550+00:00", "meta": {"OBJECT_NAME": "FLOCK 4H-3", "OBJECT_ID": "2025-276AS", "EPOCH": "2025-12-22T15:07:18.982848", "MEAN_MOTION": 15.17470325, "ECCENTRICITY": 0.00028783, "INCLINATION": 97.4446, "RA_OF_ASC_NODE": 68.2339, "ARG_OF_PERICENTER": 247.121, "MEAN_ANOMALY": 112.972, "EPHEMERIS_TYPE": 0, "CLASSIFICATION_TYPE": "U", "NORAD_CAT_ID": 66706, "ELEMENT_SET_NO": 999, "REV_AT_EPOCH": 362, "BSTAR": 0.00027722156, "MEAN_MOTION_DOT": 5.486e-05, "MEAN_MOTION_DDOT": 0}, "tle": {"line1": "1 66706U 25276AS  25356.63008082  .00005486  00000+0  27722-3 0  9990", "line2": "2 66706  97.4446  68.2339 0002878 247.1210 112.9720 15.17470325  3622"}}, "geometry": {"type": "Point", "coordinates": [85.95622605371783, -65.85100204759533]}}]}